#dP2017  3 30  0  0  0.00000000      25 ORBIT ITRF  INT   GA
## 1942 345600.00000000   900.00000000 57842 0.0000000000000
+   32   G01G02G03G04G05G06G07G08G09G10G11G12G13G14G15G16G17                 
+        G18G19G20G21G22G23G24G25G26G27G28G29G30G31G32  0  0                 
+          0  0  0  0  0  0  0  0  0  0  0  0  0  0  0  0  0                   
+          0  0  0  0  0  0  0  0  0  0  0  0  0  0  0  0  0                   
+          0  0  0  0  0  0  0  0  0  0  0  0  0  0  0  0  0                   
++         0  0  0  0  0  0  0  0  0  0  0  0  0  0  0  0  0
++         0  0  0  0  0  0  0  0  0  0  0  0  0  0  0  0  0
++         0  0  0  0  0  0  0  0  0  0  0  0  0  0  0  0  0
++         0  0  0  0  0  0  0  0  0  0  0  0  0  0  0  0  0
++         0  0  0  0  0  0  0  0  0  0  0  0  0  0  0  0  0
%c M  cc GPS ccc cccc cccc cccc cccc ccccc ccccc ccccc ccccc
%c cc cc ccc ccc cccc cccc cccc cccc ccccc ccccc ccccc ccccc
%f  1.2500000  1.025000000  0.00000000000  0.000000000000000
%f  0.0000000  0.000000000  0.00000000000  0.000000000000000
%i    0    0    0    0      0      0      0      0         0
%i    0    0    0    0      0      0      0      0         0
/* GEOSCIENCE AUSTRALIA                                     
/* Precise Orbit Determination (POD) Tool                   
/*                                                          
/* PCV:N/A        OL/AL:FES2004  NONE     Y  ORB:CoM CLK:N/A
*  2017  3 30  1  0  0.00000000
PG01  14105.360533  -6117.447646  21525.302440 999999.999999
PG02 -14094.873134 -17131.123074 -14347.627673 999999.999999
PG03  22615.436061 -12132.989606   6790.654456 999999.999999
PG04   2800.415492  15790.551772 -21342.470501 999999.999999
PG05 -16434.804096  -5327.302695 -20307.397708 999999.999999
PG06  -6452.656511 -25531.541573  -3379.003234 999999.999999
PG07   8349.189871 -19438.887685 -15622.747936 999999.999999
PG08  25370.983518   4592.917447   6627.223601 999999.999999
PG09  11160.176632 -11770.722748 -21061.250046 999999.999999
PG10  -3666.213933  19185.719088  17972.027519 999999.999999
PG11  17572.792651   -682.119234  19332.494460 999999.999999
PG12 -22928.597795   8232.850681  10154.838832 999999.999999
PG13 -23483.891827 -12347.152463    -45.685236 999999.999999
PG14  14162.877798  17704.308712  14231.216333 999999.999999
PG15 -25322.963810  -1241.349551   8354.255155 999999.999999
PG16  15236.944709   6271.500154 -21047.795791 999999.999999
PG17  -5563.173106 -17090.106306  19965.523577 999999.999999
PG18 -11938.698500  21305.443329  10750.934527 999999.999999
PG19 -12813.717579 -17553.949185  14799.654126 999999.999999
PG20 -22070.911755  10089.623078 -10940.071836 999999.999999
PG21  -2871.581792  23974.494451 -10120.257894 999999.999999
PG22  22091.914433  -5316.068689  14056.706563 999999.999999
PG23  22028.263791  -3003.611496 -14623.014815 999999.999999
PG24 -15159.407973   3254.967301  21476.509636 999999.999999
PG25 -19295.785480  17884.531000  -2764.397534 999999.999999
PG26   6535.070125  14150.710941 -21498.034282 999999.999999
PG27  22921.812498  12572.865160  -5337.459038 999999.999999
PG28   7989.859024 -19150.330176  17208.080513 999999.999999
PG29 -14333.574331   8667.963055 -20603.950923 999999.999999
PG30    395.454618 -26188.989807  -3993.889956 999999.999999
PG31   6718.888111  24924.854090  -5214.099831 999999.999999
PG32   6564.988871  16997.524564  19352.241307 999999.999999
*  2017  3 30  1 15  0.00000000
PG01  14591.744292  -3664.583477  21779.249076 999999.999999
PG02 -14243.204172 -18722.464974 -12149.022211 999999.999999
PG03  22068.550496 -11343.475451   9439.330848 999999.999999
PG04    943.479882  17216.446789 -20345.585935 999999.999999
PG05 -14726.700814  -6946.602389 -21098.076869 999999.999999
PG06  -6259.906371 -25798.986857   -523.008381 999999.999999
PG07   8857.617350 -17559.678447 -17477.973937 999999.999999
PG08  25859.133519   4995.061282   3849.175001 999999.999999
PG09  13368.221234 -10941.011756 -20205.359411 999999.999999
PG10  -5249.777877  20344.417563  16206.743008 999999.999999
PG11  18677.170061   1323.914332  18260.597685 999999.999999
PG12 -21974.558658   7291.411303  12658.696373 999999.999999
PG13 -23242.300737 -12488.220753  -2916.412518 999999.999999
PG14  12541.953954  17175.788961  16275.925769 999999.999999
PG15 -26037.387782  -1744.895400   5739.277820 999999.999999
PG16  13312.725515   7726.791713 -21822.991002 999999.999999
PG17  -3434.731496 -16305.394926  21076.789624 999999.999999
PG18 -12906.735473  21775.839098   8247.655514 999999.999999
PG19 -11053.163820 -16932.624364  16800.156122 999999.999999
PG20 -21328.874890   8903.326566 -13232.458721 999999.999999
PG21  -3477.126882  22665.449040 -12499.584524 999999.999999
PG22  21028.680720  -3980.273129  16019.356119 999999.999999
PG23  23448.204235  -2298.227692 -12452.480062 999999.999999
PG24 -15692.819378    840.572772  21345.102389 999999.999999
PG25 -19544.194071  17803.300275    132.624807 999999.999999
PG26   4677.713318  15712.896532 -20880.950687 999999.999999
PG27  22144.711133  12507.525040  -8070.937868 999999.999999
PG28   9459.413228 -20095.941787  15191.754880 999999.999999
PG29 -16412.657643   7718.011987 -19391.876327 999999.999999
PG30    762.582980 -25614.312509  -6742.064049 999999.999999
PG31   6527.722134  25406.897962  -2366.164525 999999.999999
PG32   4377.132319  16361.424435  20482.809966 999999.999999
*  2017  3 30  1 30  0.00000000
PG01  15207.787162  -1236.143605  21654.636139 999999.999999
PG02 -14396.794735 -20048.872710  -9739.297353 999999.999999
PG03  21354.686895 -10324.160866  11925.324165 999999.999999
PG04   -737.105552  18655.891564 -19002.877390 999999.999999
PG05 -13052.463975  -8699.612231 -21529.396080 999999.999999
PG06  -6001.273304 -25762.120703   2341.998440 999999.999999
PG07   9504.700529 -15520.749369 -19023.846256 999999.999999
PG08  26061.419397   5287.782238   1005.300623 999999.999999
PG09  15503.631732 -10255.831067 -19002.693449 999999.999999
PG10  -6617.508277  21433.080686  14161.774948 999999.999999
PG11  19777.902121   3166.854916  16859.641187 999999.999999
PG12 -20867.949257   6117.790473  14940.394594 999999.999999
PG13 -22710.754499 -12518.270477  -5736.871740 999999.999999
PG14  10695.556511  16660.346545  18047.397787 999999.999999
PG15 -26482.838625  -2150.197531   3027.250943 999999.999999
PG16  11421.518252   9335.106716 -22228.753892 999999.999999
PG17  -1166.516527 -15608.409795  21837.679308 999999.999999
PG18 -13658.486356  22080.358873   5603.478467 999999.999999
PG19  -9063.336568 -16329.800181  18502.548403 999999.999999
PG20 -20484.333832   7498.875736 -15298.966751 999999.999999
PG21  -4221.395154  21131.891230 -14652.614606 999999.999999
PG22  19888.964676  -2449.543742  17711.639716 999999.999999
PG23  24652.331436  -1735.959496 -10069.736510 999999.999999
PG24 -16334.759992  -1507.547270  20844.176103 999999.999999
PG25 -19560.128814  17504.960408   3027.318727 999999.999999
PG26   2967.171806  17306.092748 -19904.072136 999999.999999
PG27  21075.454233  12404.757858 -10667.405578 999999.999999
PG28  10693.111456 -20972.686286  12924.041053 999999.999999
PG29 -18393.206001   6934.978411 -17845.789604 999999.999999
PG30   1213.738498 -24759.089548  -9373.381156 999999.999999
PG31   6292.173396  25577.334471    523.534812 999999.999999
PG32   2054.858892  15810.826984  21261.641406 999999.999999
*  2017  3 30  1 45  0.00000000
PG01  15939.641778   1119.877162  21154.462921 999999.999999
PG02 -14519.554079 -21096.924316  -7161.415802 999999.999999
PG03  20513.734824  -9068.939532  14205.808975 999999.999999
PG04  -2221.030161  20065.020605 -17336.109258 999999.999999
PG05 -11448.760656 -10556.900225 -21593.477485 999999.999999
PG06  -5640.899106 -25432.569879   5166.675634 999999.999999
PG07  10300.001019 -13368.834077 -20233.640923 999999.999999
PG08  25962.868650   5505.829596  -1855.772886 999999.999999
PG09  17520.129257  -9711.403641 -17473.866285 999999.999999
PG10  -7763.603974  22408.507723  11872.202350 999999.999999
PG11  20838.046101   4824.466388  15155.782278 999999.999999
PG12 -19653.952614   4710.438393  16959.805802 999999.999999
PG13 -21884.682456 -12475.664179  -8458.592284 999999.999999
PG14   8650.948479  16192.550518  19516.189715 999999.999999
PG15 -26643.953550  -2488.592255    264.154794 999999.999999
PG16   9604.930005  11068.544069 -22257.066077 999999.999999
PG17   1200.348372 -15023.414563  22235.529606 999999.999999
PG18 -14206.730227  22184.860033   2862.921995 999999.999999
PG19  -6875.846117 -15781.676955  19876.652766 999999.999999
PG20 -19576.752634   5883.523600 -17104.663952 999999.999999
PG21  -5120.620525  19411.820456 -16538.659045 999999.999999
PG22  18712.402538   -735.770367  19105.381991 999999.999999
PG23  25609.725560  -1293.705239  -7516.093336 999999.999999
PG24 -17065.885203  -3745.855347  19983.155999 999999.999999
PG25 -19373.018954  16964.318423   5869.083022 999999.999999
PG26   1426.897462  18888.621873 -18583.994583 999999.999999
PG27  19725.175983  12303.491511 -13082.743236 999999.999999
PG28  11686.700305 -21736.428071  10441.185248 999999.999999
PG29 -20227.948916   6312.905730 -15992.236463 999999.999999
PG30   1778.321000 -23647.670112 -11842.312655 999999.999999
PG31   5974.926940  25442.506276   3404.009319 999999.999999
PG32   -359.226955  15367.624494  21675.261988 999999.999999
EOF
